$$SOE
2461323.500000000, A.D. 2026-Oct-10 00:00:00.0000, 2.903037988315030E+09, 5.865750224457379E+09, 4.374863034604857E+08,
2461330.500000000, A.D. 2026-Oct-17 00:00:00.0000, 2.900980403271917E+09, 5.867810216769982E+09, 4.384045956607771E+08,
2461337.500000000, A.D. 2026-Oct-24 00:00:00.0000, 2.898922344015633E+09, 5.869869138114317E+09, 4.393228125150268E+08,
2461344.500000000, A.D. 2026-Oct-31 00:00:00.0000, 2.896863811875628E+09, 5.871926985832685E+09, 4.402409538369427E+08,
2461351.500000000, A.D. 2026-Nov-07 00:00:00.0000, 2.894804808980237E+09, 5.873983756637678E+09, 4.411590193189917E+08,
2461358.500000000, A.D. 2026-Nov-14 00:00:00.0000, 2.892745339338478E+09, 5.876039447132673E+09, 4.420770084686341E+08,
2461365.500000000, A.D. 2026-Nov-21 00:00:00.0000, 2.890685408738256E+09, 5.878094055812950E+09, 4.429949207740843E+08,
2461372.500000000, A.D. 2026-Nov-28 00:00:00.0000, 2.888625022462877E+09, 5.880147583539444E+09, 4.439127559455390E+08,
2461379.500000000, A.D. 2026-Dec-05 00:00:00.0000, 2.886564184445411E+09, 5.882200031828741E+09, 4.448305138465827E+08,
2461386.500000000, A.D. 2026-Dec-12 00:00:00.0000, 2.884502898025813E+09, 5.884251402070369E+09, 4.457481943551364E+08,
2461393.500000000, A.D. 2026-Dec-19 00:00:00.0000, 2.882441166423566E+09, 5.886301695677718E+09, 4.466657973278673E+08,
2461400.500000000, A.D. 2026-Dec-26 00:00:00.0000, 2.880378992783393E+09, 5.888350914304614E+09, 4.475833226103642E+08,
2461407.500000000, A.D. 2027-Jan-02 00:00:00.0000, 2.878316380069617E+09, 5.890399059936423E+09, 4.485007700523796E+08,
2461414.500000000, A.D. 2027-Jan-09 00:00:00.0000, 2.876253330925517E+09, 5.892446134875761E+09, 4.494181395191686E+08,
2461421.500000000, A.D. 2027-Jan-16 00:00:00.0000, 2.874189847531945E+09, 5.894492141631340E+09, 4.503354308964858E+08,
2461428.500000000, A.D. 2027-Jan-23 00:00:00.0000, 2.872125931509800E+09, 5.896537082670166E+09, 4.512526440818026E+08,
2461435.500000000, A.D. 2027-Jan-30 00:00:00.0000, 2.870061584052482E+09, 5.898580959985107E+09, 4.521697789405859E+08,
2461442.500000000, A.D. 2027-Feb-06 00:00:00.0000, 2.867996806711405E+09, 5.900623774817693E+09, 4.530868352163846E+08,
2461449.500000000, A.D. 2027-Feb-13 00:00:00.0000, 2.865931602372720E+09, 5.902665528755689E+09, 4.540038125364931E+08,
2461456.500000000, A.D. 2027-Feb-20 00:00:00.0000, 2.863865974060016E+09, 5.904706225414389E+09, 4.549207106651587E+08,
2461463.500000000, A.D. 2027-Feb-27 00:00:00.0000, 2.861799922958004E+09, 5.906745869487865E+09, 4.558375296134975E+08,
2461470.500000000, A.D. 2027-Mar-06 00:00:00.0000, 2.859733448674650E+09, 5.908784465092745E+09, 4.567542694862101E+08,
2461477.500000000, A.D. 2027-Mar-13 00:00:00.0000, 2.857666550141238E+09, 5.910822015453967E+09, 4.576709303791678E+08,
2461484.500000000, A.D. 2027-Mar-20 00:00:00.0000, 2.855599226020782E+09, 5.912858523097905E+09, 4.585875123630564E+08,
2461491.500000000, A.D. 2027-Mar-27 00:00:00.0000, 2.853531474826775E+09, 5.914893990003866E+09, 4.595040154895592E+08,
2461498.500000000, A.D. 2027-Apr-03 00:00:00.0000, 2.851463294955137E+09, 5.916928417666256E+09, 4.604204397974524E+08,
2461505.500000000, A.D. 2027-Apr-10 00:00:00.0000, 2.849394684690648E+09, 5.918961807090487E+09, 4.613367853148048E+08,
2461512.500000000, A.D. 2027-Apr-17 00:00:00.0000, 2.847325642209901E+09, 5.920994158708273E+09, 4.622530520540535E+08,
2461519.500000000, A.D. 2027-Apr-24 00:00:00.0000, 2.845256165660019E+09, 5.923025472150217E+09, 4.631692399875619E+08,
2461526.500000000, A.D. 2027-May-01 00:00:00.0000, 2.843186253612748E+09, 5.925055745903412E+09, 4.640853489784758E+08,
2461533.500000000, A.D. 2027-May-08 00:00:00.0000, 2.841115906201329E+09, 5.927084977602561E+09, 4.650013786998308E+08,
2461540.500000000, A.D. 2027-May-15 00:00:00.0000, 2.839045125443285E+09, 5.929113165907934E+09, 4.659173287571516E+08,
2461547.500000000, A.D. 2027-May-22 00:00:00.0000, 2.836973913185235E+09, 5.931140311378664E+09, 4.668331989462006E+08,
2461554.500000000, A.D. 2027-May-29 00:00:00.0000, 2.834902270025698E+09, 5.933166414873042E+09, 4.677489892181821E+08,
2461561.500000000, A.D. 2027-Jun-05 00:00:00.0000, 2.832830196100687E+09, 5.935191476607617E+09, 4.686646995272381E+08,
2461568.500000000, A.D. 2027-Jun-12 00:00:00.0000, 2.830757691724590E+09, 5.937215496306862E+09, 4.695803297797990E+08,
2461575.500000000, A.D. 2027-Jun-19 00:00:00.0000, 2.828684757555316E+09, 5.939238473508418E+09, 4.704958798398507E+08,
2461582.500000000, A.D. 2027-Jun-26 00:00:00.0000, 2.826611394563107E+09, 5.941260407762592E+09, 4.714113495433321E+08,
2461589.500000000, A.D. 2027-Jul-03 00:00:00.0000, 2.824537603935155E+09, 5.943281298734393E+09, 4.723267387104340E+08,
2461596.500000000, A.D. 2027-Jul-10 00:00:00.0000, 2.822463386952874E+09, 5.945301146216856E+09, 4.732420471533628E+08,
2461603.500000000, A.D. 2027-Jul-17 00:00:00.0000, 2.820388744878150E+09, 5.947319950016773E+09, 4.741572746733263E+08,
2461610.500000000, A.D. 2027-Jul-24 00:00:00.0000, 2.818313679005032E+09, 5.949337709650031E+09, 4.750724210274899E+08,
2461617.500000000, A.D. 2027-Jul-31 00:00:00.0000, 2.816238191288258E+09, 5.951354424082077E+09, 4.759874858476555E+08,
2461624.500000000, A.D. 2027-Aug-07 00:00:00.0000, 2.814162285347919E+09, 5.953370092665226E+09, 4.769024686233714E+08,
2461631.500000000, A.D. 2027-Aug-14 00:00:00.0000, 2.812085965549130E+09, 5.955384717019520E+09, 4.778173689399328E+08,
2461638.500000000, A.D. 2027-Aug-21 00:00:00.0000, 2.810009234774934E+09, 5.957398300492922E+09, 4.787321866396732E+08,
2461645.500000000, A.D. 2027-Aug-28 00:00:00.0000, 2.807932094323483E+09, 5.959410846404110E+09, 4.796469216901758E+08,
2461652.500000000, A.D. 2027-Sep-04 00:00:00.0000, 2.805854544748389E+09, 5.961422357570128E+09, 4.805615740720897E+08,
2461659.500000000, A.D. 2027-Sep-11 00:00:00.0000, 2.803776586246875E+09, 5.963432836457636E+09, 4.814761437603028E+08,
2461666.500000000, A.D. 2027-Sep-18 00:00:00.0000, 2.801698218728963E+09, 5.965442285307631E+09, 4.823906307328579E+08,
2461673.500000000, A.D. 2027-Sep-25 00:00:00.0000, 2.799619441796523E+09, 5.967450706156316E+09, 4.833050349800270E+08,
2461680.500000000, A.D. 2027-Oct-02 00:00:00.0000, 2.797540254707272E+09, 5.969458100779922E+09, 4.842193565086358E+08,
2461687.500000000, A.D. 2027-Oct-09 00:00:00.0000, 2.795460656346229E+09, 5.971464470559464E+09, 4.851335953389754E+08,
2461694.500000000, A.D. 2027-Oct-16 00:00:00.0000, 2.793380645267892E+09, 5.973469816210907E+09, 4.860477514837701E+08,
2461701.500000000, A.D. 2027-Oct-23 00:00:00.0000, 2.791300220069154E+09, 5.975474137375486E+09, 4.869618248847325E+08,
2461708.500000000, A.D. 2027-Oct-30 00:00:00.0000, 2.789219380467788E+09, 5.977477432680835E+09, 4.878758153220723E+08,
2461715.500000000, A.D. 2027-Nov-06 00:00:00.0000, 2.787138127923202E+09, 5.979479701401352E+09, 4.887897224957469E+08,
2461722.500000000, A.D. 2027-Nov-13 00:00:00.0000, 2.785056463814089E+09, 5.981480944641835E+09, 4.897035462908280E+08,
2461729.500000000, A.D. 2027-Nov-20 00:00:00.0000, 2.782974388074891E+09, 5.983481163858659E+09, 4.906172867821565E+08,
2461736.500000000, A.D. 2027-Nov-27 00:00:00.0000, 2.780891899908684E+09, 5.985480359683091E+09, 4.915309440722513E+08,
2461743.500000000, A.D. 2027-Dec-04 00:00:00.0000, 2.778808998552930E+09, 5.987478531960752E+09, 4.924445182227635E+08,
2461750.500000000, A.D. 2027-Dec-11 00:00:00.0000, 2.776725683547551E+09, 5.989475680043322E+09, 4.933580092512624E+08,
2461757.500000000, A.D. 2027-Dec-18 00:00:00.0000, 2.774641954780279E+09, 5.991471802993520E+09, 4.942714171404872E+08,
2461764.500000000, A.D. 2027-Dec-25 00:00:00.0000, 2.772557812461292E+09, 5.993466899701255E+09, 4.951847418460374E+08,
2461771.500000000, A.D. 2028-Jan-01 00:00:00.0000, 2.770473257068546E+09, 5.995460968925667E+09, 4.960979833000174E+08,
$$EOE